{
  "type": "FeatureCollection",
  "features": [
    {
      "type": "Feature",
      "properties": {
        "id": 1,
        "name": "Building A"
      },
      "geometry": {
        "type": "Polygon",
        "coordinates": [
          [
            [0, 0],
            [0, 1],
            [1, 1],
            [1, 0],
            [0, 0]
          ]
        ]
      }
    },
    {
      "type": "Feature",
      "properties": {
        "id": 2,
        "name": "Building B"
      },
      "geometry": {
        "type": "Polygon",
        "coordinates": [
          [
            [2, 2],
            [2, 3],
            [3, 3],
            [3, 2],
            [2, 2]
          ]
        ]
      }
    }
  ]
}